[{"OBJECT_NAME":"ICEYE-X26","OBJECT_ID":"2023-084AF","EPOCH":"2026-03-09T22:36:43.632288","MEAN_MOTION":15.73279775,"ECCENTRICITY":9.181e-5,"INCLINATION":97.5771,"RA_OF_ASC_NODE":224.5701,"ARG_OF_PERICENTER":250.447,"MEAN_ANOMALY":109.6694,"EPHEMERIS_TYPE":0,"CLASSIFICATION_TYPE":"U","NORAD_CAT_ID":56961,"ELEMENT_SET_NO":999,"REV_AT_EPOCH":15354,"BSTAR":0.00052391916,"MEAN_MOTION_DOT":0.00072488,"MEAN_MOTION_DDOT":0},{"OBJECT_NAME":"STARLINK-11594 [DTC]","OBJECT_ID":"2025-124D","EPOCH":"2026-03-09T21:38:47.346432","MEAN_MOTION":15.70881986,"ECCENTRICITY":0.00017109,"INCLINATION":43.0005,"RA_OF_ASC_NODE":28.3053,"ARG_OF_PERICENTER":220.2002,"MEAN_ANOMALY":139.8739,"EPHEMERIS_TYPE":0,"CLASSIFICATION_TYPE":"U","NORAD_CAT_ID":64320,"ELEMENT_SET_NO":999,"REV_AT_EPOCH":4286,"BSTAR":0.0021574487,"MEAN_MOTION_DOT":0.00286648,"MEAN_MOTION_DDOT":0}]
