ICEYE-X26               
1 56961U 23084AF  26068.94217167  .00072488  00000+0  52392-3 0  9995
2 56961  97.5771 224.5701 0000918 250.4470 109.6694 15.73279775153542
STARLINK-11594 [DTC]    
1 64320U 25124D   26068.90193688  .00286648  00000+0  21574-2 0  9999
2 64320  43.0005  28.3053 0001711 220.2002 139.8739 15.70881986 42861
